STARLINK-4757           
1 53824U 22114G   26087.52634088  .00000427  00000+0  44922-4 0  9998
2 53824  53.2167 218.9667 0001270  80.4211 279.6925 15.08834687195592
STARLINK-4751           
1 53825U 22114H   26087.53010441  .00000390  00000+0  42561-4 0  9997
2 53825  53.2172 219.6845 0001175  90.0346 270.0781 15.08842323195675
STARLINK-4756           
1 53826U 22114J   26087.51168192 -.00000327  00000+0 -24784-5 0  9993
2 53826  53.2175 219.5702 0001403  92.6805 267.4348 15.08838952195674
STARLINK-4764           
1 53827U 22114K   26087.52273243  .00000441  00000+0  45803-4 0  9998
2 53827  53.2169 219.6380 0001231  92.9302 267.1831 15.08835770195674
STARLINK-4760           
1 53828U 22114L   26087.37551808  .00000910  00000+0  75248-4 0  9995
2 53828  53.2169 220.1428 0001252  79.5525 280.5608 15.08838514195654
STARLINK-4759           
1 53829U 22114M   26087.51905307  .00005398  00000+0  35687-3 0  9996
2 53829  53.2156 219.6158 0001370  95.4008 264.7140 15.08850699195673
STARLINK-4761           
1 53830U 22114N   26087.50062585  .00000202  00000+0  30797-4 0  9996
2 53830  53.2168 219.5012 0001609  99.8046 260.3127 15.08839074195672
STARLINK-4649           
1 53831U 22114P   26087.51536303 -.00000035  00000+0  15862-4 0  9993
2 53831  53.2177 219.5926 0001215  91.8103 268.3028 15.08838184195675
STARLINK-4747           
1 53832U 22114Q   26087.09582112 -.00000337  00000+0 -30737-5 0  9991
2 53832  53.2165 221.2412 0001073  84.8495 275.2620 15.08829306195616
STARLINK-4771           
1 53833U 22114R   26087.50526623  .00000222  00000+0  32056-4 0  9999
2 53833  53.2170 219.5308 0001315  99.2015 260.9126 15.08841114195673
STARLINK-4737           
1 53834U 22114S   26086.88972396  .00001899  00000+0  13735-3 0  9995
2 53834  53.2180 222.0853 0001499  84.6724 275.4439 15.08844484195588
STARLINK-4783           
1 53835U 22114T   26087.09949882  .00000304  00000+0  37197-4 0  9993
2 53835  53.2174 221.2649 0001295  88.9806 271.1335 15.08840162195619
STARLINK-4778           
1 53836U 22114U   26087.53471250 -.00000585  00000+0 -18705-4 0  9999
2 53836  53.2173 209.7239 0001135  80.9218 279.1903 15.08839442195817
STARLINK-4776           
1 53837U 22114V   26087.35709421 -.00000529  00000+0 -15166-4 0  9990
2 53837  53.2166 220.0276 0001388  86.8460 273.2691 15.08840265195657
STARLINK-4773           
1 53838U 22114W   26087.53102859  .00000466  00000+0  47393-4 0  9998
2 53838  53.2177 209.7036 0001202  85.0903 275.0226 15.08840215195813
STARLINK-4784           
1 53839U 22114X   26087.53841399 -.00000694  00000+0 -25525-4 0  9996
2 53839  53.2175 209.7523 0001391  85.5609 274.5542 15.08832976195810
STARLINK-4766           
1 53840U 22114Y   26087.52093161 -.00000160  00000+0  80764-5 0  9997
2 53840  53.2140 209.6453 0001811  82.2310 277.8888 15.08841886195814
