[{"OBJECT_NAME":"STARLINK-4757","OBJECT_ID":"2022-114G","EPOCH":"2026-03-28T12:37:55.852032","MEAN_MOTION":15.08834687,"ECCENTRICITY":0.000127,"INCLINATION":53.2167,"RA_OF_ASC_NODE":218.9667,"ARG_OF_PERICENTER":80.4211,"MEAN_ANOMALY":279.6925,"EPHEMERIS_TYPE":0,"CLASSIFICATION_TYPE":"U","NORAD_CAT_ID":53824,"ELEMENT_SET_NO":999,"REV_AT_EPOCH":19559,"BSTAR":4.4922e-5,"MEAN_MOTION_DOT":4.27e-6,"MEAN_MOTION_DDOT":0},{"OBJECT_NAME":"STARLINK-4751","OBJECT_ID":"2022-114H","EPOCH":"2026-03-28T12:43:21.021024","MEAN_MOTION":15.08842323,"ECCENTRICITY":0.0001175,"INCLINATION":53.2172,"RA_OF_ASC_NODE":219.6845,"ARG_OF_PERICENTER":90.0346,"MEAN_ANOMALY":270.0781,"EPHEMERIS_TYPE":0,"CLASSIFICATION_TYPE":"U","NORAD_CAT_ID":53825,"ELEMENT_SET_NO":999,"REV_AT_EPOCH":19567,"BSTAR":4.2561e-5,"MEAN_MOTION_DOT":3.9e-6,"MEAN_MOTION_DDOT":0},{"OBJECT_NAME":"STARLINK-4756","OBJECT_ID":"2022-114J","EPOCH":"2026-03-28T12:16:49.317888","MEAN_MOTION":15.08838952,"ECCENTRICITY":0.0001403,"INCLINATION":53.2175,"RA_OF_ASC_NODE":219.5702,"ARG_OF_PERICENTER":92.6805,"MEAN_ANOMALY":267.4348,"EPHEMERIS_TYPE":0,"CLASSIFICATION_TYPE":"U","NORAD_CAT_ID":53826,"ELEMENT_SET_NO":999,"REV_AT_EPOCH":19567,"BSTAR":-2.4784e-6,"MEAN_MOTION_DOT":-3.27e-6,"MEAN_MOTION_DDOT":0},{"OBJECT_NAME":"STARLINK-4764","OBJECT_ID":"2022-114K","EPOCH":"2026-03-28T12:32:44.081952","MEAN_MOTION":15.0883577,"ECCENTRICITY":0.0001231,"INCLINATION":53.2169,"RA_OF_ASC_NODE":219.638,"ARG_OF_PERICENTER":92.9302,"MEAN_ANOMALY":267.1831,"EPHEMERIS_TYPE":0,"CLASSIFICATION_TYPE":"U","NORAD_CAT_ID":53827,"ELEMENT_SET_NO":999,"REV_AT_EPOCH":19567,"BSTAR":4.5803e-5,"MEAN_MOTION_DOT":4.41e-6,"MEAN_MOTION_DDOT":0},{"OBJECT_NAME":"STARLINK-4760","OBJECT_ID":"2022-114L","EPOCH":"2026-03-28T09:00:44.762112","MEAN_MOTION":15.08838514,"ECCENTRICITY":0.0001252,"INCLINATION":53.2169,"RA_OF_ASC_NODE":220.1428,"ARG_OF_PERICENTER":79.5525,"MEAN_ANOMALY":280.5608,"EPHEMERIS_TYPE":0,"CLASSIFICATION_TYPE":"U","NORAD_CAT_ID":53828,"ELEMENT_SET_NO":999,"REV_AT_EPOCH":19565,"BSTAR":7.5248e-5,"MEAN_MOTION_DOT":9.1e-6,"MEAN_MOTION_DDOT":0},{"OBJECT_NAME":"STARLINK-4759","OBJECT_ID":"2022-114M","EPOCH":"2026-03-28T12:27:26.185248","MEAN_MOTION":15.08850699,"ECCENTRICITY":0.000137,"INCLINATION":53.2156,"RA_OF_ASC_NODE":219.6158,"ARG_OF_PERICENTER":95.4008,"MEAN_ANOMALY":264.714,"EPHEMERIS_TYPE":0,"CLASSIFICATION_TYPE":"U","NORAD_CAT_ID":53829,"ELEMENT_SET_NO":999,"REV_AT_EPOCH":19567,"BSTAR":0.00035687,"MEAN_MOTION_DOT":5.398e-5,"MEAN_MOTION_DDOT":0},{"OBJECT_NAME":"STARLINK-4761","OBJECT_ID":"2022-114N","EPOCH":"2026-03-28T12:00:54.073440","MEAN_MOTION":15.08839074,"ECCENTRICITY":0.0001609,"INCLINATION":53.2168,"RA_OF_ASC_NODE":219.5012,"ARG_OF_PERICENTER":99.8046,"MEAN_ANOMALY":260.3127,"EPHEMERIS_TYPE":0,"CLASSIFICATION_TYPE":"U","NORAD_CAT_ID":53830,"ELEMENT_SET_NO":999,"REV_AT_EPOCH":19567,"BSTAR":3.0797e-5,"MEAN_MOTION_DOT":2.02e-6,"MEAN_MOTION_DDOT":0},{"OBJECT_NAME":"STARLINK-4649","OBJECT_ID":"2022-114P","EPOCH":"2026-03-28T12:22:07.365792","MEAN_MOTION":15.08838184,"ECCENTRICITY":0.0001215,"INCLINATION":53.2177,"RA_OF_ASC_NODE":219.5926,"ARG_OF_PERICENTER":91.8103,"MEAN_ANOMALY":268.3028,"EPHEMERIS_TYPE":0,"CLASSIFICATION_TYPE":"U","NORAD_CAT_ID":53831,"ELEMENT_SET_NO":999,"REV_AT_EPOCH":19567,"BSTAR":1.5862e-5,"MEAN_MOTION_DOT":-3.5e-7,"MEAN_MOTION_DDOT":0},{"OBJECT_NAME":"STARLINK-4747","OBJECT_ID":"2022-114Q","EPOCH":"2026-03-28T02:17:58.944768","MEAN_MOTION":15.08829306,"ECCENTRICITY":0.00010734,"INCLINATION":53.2165,"RA_OF_ASC_NODE":221.2412,"ARG_OF_PERICENTER":84.8495,"MEAN_ANOMALY":275.262,"EPHEMERIS_TYPE":0,"CLASSIFICATION_TYPE":"U","NORAD_CAT_ID":53832,"ELEMENT_SET_NO":999,"REV_AT_EPOCH":19561,"BSTAR":-3.073662e-6,"MEAN_MOTION_DOT":-3.37e-6,"MEAN_MOTION_DDOT":0},{"OBJECT_NAME":"STARLINK-4771","OBJECT_ID":"2022-114R","EPOCH":"2026-03-28T12:07:35.002272","MEAN_MOTION":15.08841114,"ECCENTRICITY":0.0001315,"INCLINATION":53.217,"RA_OF_ASC_NODE":219.5308,"ARG_OF_PERICENTER":99.2015,"MEAN_ANOMALY":260.9126,"EPHEMERIS_TYPE":0,"CLASSIFICATION_TYPE":"U","NORAD_CAT_ID":53833,"ELEMENT_SET_NO":999,"REV_AT_EPOCH":19567,"BSTAR":3.2056e-5,"MEAN_MOTION_DOT":2.22e-6,"MEAN_MOTION_DDOT":0},{"OBJECT_NAME":"STARLINK-4737","OBJECT_ID":"2022-114S","EPOCH":"2026-03-27T21:21:12.150144","MEAN_MOTION":15.08844484,"ECCENTRICITY":0.0001499,"INCLINATION":53.218,"RA_OF_ASC_NODE":222.0853,"ARG_OF_PERICENTER":84.6724,"MEAN_ANOMALY":275.4439,"EPHEMERIS_TYPE":0,"CLASSIFICATION_TYPE":"U","NORAD_CAT_ID":53834,"ELEMENT_SET_NO":999,"REV_AT_EPOCH":19558,"BSTAR":0.00013735,"MEAN_MOTION_DOT":1.899e-5,"MEAN_MOTION_DDOT":0},{"OBJECT_NAME":"STARLINK-4783","OBJECT_ID":"2022-114T","EPOCH":"2026-03-28T02:23:16.698048","MEAN_MOTION":15.08840162,"ECCENTRICITY":0.00012952,"INCLINATION":53.2174,"RA_OF_ASC_NODE":221.2649,"ARG_OF_PERICENTER":88.9806,"MEAN_ANOMALY":271.1335,"EPHEMERIS_TYPE":0,"CLASSIFICATION_TYPE":"U","NORAD_CAT_ID":53835,"ELEMENT_SET_NO":999,"REV_AT_EPOCH":19561,"BSTAR":3.7196638e-5,"MEAN_MOTION_DOT":3.04e-6,"MEAN_MOTION_DDOT":0},{"OBJECT_NAME":"STARLINK-4778","OBJECT_ID":"2022-114U","EPOCH":"2026-03-28T12:49:59.160000","MEAN_MOTION":15.08839442,"ECCENTRICITY":0.0001135,"INCLINATION":53.2173,"RA_OF_ASC_NODE":209.7239,"ARG_OF_PERICENTER":80.9218,"MEAN_ANOMALY":279.1903,"EPHEMERIS_TYPE":0,"CLASSIFICATION_TYPE":"U","NORAD_CAT_ID":53836,"ELEMENT_SET_NO":999,"REV_AT_EPOCH":19581,"BSTAR":-1.8705e-5,"MEAN_MOTION_DOT":-5.85e-6,"MEAN_MOTION_DDOT":0},{"OBJECT_NAME":"STARLINK-4776","OBJECT_ID":"2022-114V","EPOCH":"2026-03-28T08:34:12.939744","MEAN_MOTION":15.08840265,"ECCENTRICITY":0.0001388,"INCLINATION":53.2166,"RA_OF_ASC_NODE":220.0276,"ARG_OF_PERICENTER":86.846,"MEAN_ANOMALY":273.2691,"EPHEMERIS_TYPE":0,"CLASSIFICATION_TYPE":"U","NORAD_CAT_ID":53837,"ELEMENT_SET_NO":999,"REV_AT_EPOCH":19565,"BSTAR":-1.5166e-5,"MEAN_MOTION_DOT":-5.29e-6,"MEAN_MOTION_DDOT":0},{"OBJECT_NAME":"STARLINK-4773","OBJECT_ID":"2022-114W","EPOCH":"2026-03-28T12:44:40.870176","MEAN_MOTION":15.08840215,"ECCENTRICITY":0.0001202,"INCLINATION":53.2177,"RA_OF_ASC_NODE":209.7036,"ARG_OF_PERICENTER":85.0903,"MEAN_ANOMALY":275.0226,"EPHEMERIS_TYPE":0,"CLASSIFICATION_TYPE":"U","NORAD_CAT_ID":53838,"ELEMENT_SET_NO":999,"REV_AT_EPOCH":19581,"BSTAR":4.7393e-5,"MEAN_MOTION_DOT":4.66e-6,"MEAN_MOTION_DDOT":0},{"OBJECT_NAME":"STARLINK-4784","OBJECT_ID":"2022-114X","EPOCH":"2026-03-28T12:55:18.968736","MEAN_MOTION":15.08832976,"ECCENTRICITY":0.0001391,"INCLINATION":53.2175,"RA_OF_ASC_NODE":209.7523,"ARG_OF_PERICENTER":85.5609,"MEAN_ANOMALY":274.5542,"EPHEMERIS_TYPE":0,"CLASSIFICATION_TYPE":"U","NORAD_CAT_ID":53839,"ELEMENT_SET_NO":999,"REV_AT_EPOCH":19581,"BSTAR":-2.5525e-5,"MEAN_MOTION_DOT":-6.94e-6,"MEAN_MOTION_DDOT":0},{"OBJECT_NAME":"STARLINK-4766","OBJECT_ID":"2022-114Y","EPOCH":"2026-03-28T12:30:08.491104","MEAN_MOTION":15.08841886,"ECCENTRICITY":0.0001811,"INCLINATION":53.214,"RA_OF_ASC_NODE":209.6453,"ARG_OF_PERICENTER":82.231,"MEAN_ANOMALY":277.8888,"EPHEMERIS_TYPE":0,"CLASSIFICATION_TYPE":"U","NORAD_CAT_ID":53840,"ELEMENT_SET_NO":999,"REV_AT_EPOCH":19581,"BSTAR":8.0764e-6,"MEAN_MOTION_DOT":-1.6e-6,"MEAN_MOTION_DDOT":0}]
